SL-16 R/B               
1 22285U 92093B   25299.95965942 -.00000208  00000+0 -82419-4 0  9997
2 22285  71.0202 284.9950 0003715 187.1468 172.9603 14.15418843694232
COSMOS 2228             
1 22286U 92094A   25299.88752683  .00002883  00000+0  25121-3 0  9992
2 22286  82.5208   5.3518 0018930  36.6277 323.6235 14.96420828756041
SL-16 R/B               
1 22566U 93016B   25299.91610072 -.00000070  00000+0 -11430-4 0  9994
2 22566  71.0060 136.1444 0009906 180.5636 179.5478 14.15280317683249
COSMOS 2242             
1 22626U 93024A   25299.74708200  .00003231  00000+0  28646-3 0  9998
2 22626  82.5220  34.7411 0017289  39.9142 320.3347 14.95817421760360
SL-16 R/B               
1 22803U 93059B   25299.93604272  .00000167  00000+0  10625-3 0  9991
2 22803  70.9892 293.1819 0015285  48.5617 311.6817 14.17202107660584
ARIANE 40 R/B           
1 22830U 93061H   25299.20063021  .00000366  00000+0  15032-3 0  9993
2 22830  98.5130   5.5827 0009979 327.4134  32.6433 14.32747706674849
COSMOS 2278             
1 23087U 94023A   25299.92780197 -.00000149  00000+0 -53216-4 0  9994
2 23087  71.0510  94.9445 0010823 240.9232 119.0808 14.14331394625897
SL-16 R/B               
1 23088U 94023B   25299.89421485  .00000306  00000+0  18284-3 0  9991
2 23088  71.0019 351.8660 0002506 183.8903 176.2200 14.14989158627165
SL-16 R/B               
1 23343U 94074B   25299.88675794  .00000709  00000+0  10216-3 0  9998
2 23343  97.7265 331.0387 0005352 304.6954 228.2450 14.79208963667465
SL-16 R/B               
1 23405U 94077B   25299.92797111 -.00000196  00000+0 -75691-4 0  9994
2 23405  70.9814 273.8916 0003407 320.8019  39.2857 14.15539364597307
ARIANE 40+ R/B          
1 23561U 95021B   25299.98423876  .00000459  00000+0  16062-3 0  9993
2 23561  98.4702   8.1262 0006931 173.4192 359.4555 14.39640483600008
SL-16 R/B               
1 23705U 95058B   25299.85766743  .00000165  00000+0  10895-3 0  9994
2 23705  71.0185 101.2292 0013940 316.3078  43.6941 14.15467917548912
