CCSDS_OMM_VERS = 2.0
CREATION_DATE  = 
ORIGINATOR     = 

OBJECT_NAME    = SL-16 R/B
OBJECT_ID      = 1992-093B
CENTER_NAME    = EARTH
REF_FRAME      = TEME
TIME_SYSTEM    = UTC
MEAN_ELEMENT_THEORY = SGP/SGP4

EPOCH          = 2025-10-26T23:01:54.573888
MEAN_MOTION    = 14.15418843
ECCENTRICITY   = .00037155
INCLINATION    = 71.0202
RA_OF_ASC_NODE = 284.9950
ARG_OF_PERICENTER = 187.1468
MEAN_ANOMALY   = 172.9603

EPHEMERIS_TYPE = 0
CLASSIFICATION_TYPE = U
NORAD_CAT_ID   = 22285
ELEMENT_SET_NO = 999
REV_AT_EPOCH   = 69423
BSTAR          = -.82418993E-4
MEAN_MOTION_DOT = -.208E-5
MEAN_MOTION_DDOT = 0

CCSDS_OMM_VERS = 2.0
CREATION_DATE  = 
ORIGINATOR     = 

OBJECT_NAME    = COSMOS 2228
OBJECT_ID      = 1992-094A
CENTER_NAME    = EARTH
REF_FRAME      = TEME
TIME_SYSTEM    = UTC
MEAN_ELEMENT_THEORY = SGP/SGP4

EPOCH          = 2025-10-26T21:18:02.318112
MEAN_MOTION    = 14.96420828
ECCENTRICITY   = .00189302
INCLINATION    = 82.5208
RA_OF_ASC_NODE = 5.3518
ARG_OF_PERICENTER = 36.6277
MEAN_ANOMALY   = 323.6235

EPHEMERIS_TYPE = 0
CLASSIFICATION_TYPE = U
NORAD_CAT_ID   = 22286
ELEMENT_SET_NO = 999
REV_AT_EPOCH   = 75604
BSTAR          = .25121293E-3
MEAN_MOTION_DOT = .2883E-4
MEAN_MOTION_DDOT = 0

CCSDS_OMM_VERS = 2.0
CREATION_DATE  = 
ORIGINATOR     = 

OBJECT_NAME    = SL-16 R/B
OBJECT_ID      = 1993-016B
CENTER_NAME    = EARTH
REF_FRAME      = TEME
TIME_SYSTEM    = UTC
MEAN_ELEMENT_THEORY = SGP/SGP4

EPOCH          = 2025-10-26T21:59:11.102208
MEAN_MOTION    = 14.15280317
ECCENTRICITY   = .00099064
INCLINATION    = 71.0060
RA_OF_ASC_NODE = 136.1444
ARG_OF_PERICENTER = 180.5636
MEAN_ANOMALY   = 179.5478

EPHEMERIS_TYPE = 0
CLASSIFICATION_TYPE = U
NORAD_CAT_ID   = 22566
ELEMENT_SET_NO = 999
REV_AT_EPOCH   = 68324
BSTAR          = -.1143006E-4
MEAN_MOTION_DOT = -.7E-6
MEAN_MOTION_DDOT = 0

CCSDS_OMM_VERS = 2.0
CREATION_DATE  = 
ORIGINATOR     = 

OBJECT_NAME    = COSMOS 2242
OBJECT_ID      = 1993-024A
CENTER_NAME    = EARTH
REF_FRAME      = TEME
TIME_SYSTEM    = UTC
MEAN_ELEMENT_THEORY = SGP/SGP4

EPOCH          = 2025-10-26T17:55:47.884800
MEAN_MOTION    = 14.95817421
ECCENTRICITY   = .00172892
INCLINATION    = 82.5220
RA_OF_ASC_NODE = 34.7411
ARG_OF_PERICENTER = 39.9142
MEAN_ANOMALY   = 320.3347

EPHEMERIS_TYPE = 0
CLASSIFICATION_TYPE = U
NORAD_CAT_ID   = 22626
ELEMENT_SET_NO = 999
REV_AT_EPOCH   = 76036
BSTAR          = .28645786E-3
MEAN_MOTION_DOT = .3231E-4
MEAN_MOTION_DDOT = 0

CCSDS_OMM_VERS = 2.0
CREATION_DATE  = 
ORIGINATOR     = 

OBJECT_NAME    = SL-16 R/B
OBJECT_ID      = 1993-059B
CENTER_NAME    = EARTH
REF_FRAME      = TEME
TIME_SYSTEM    = UTC
MEAN_ELEMENT_THEORY = SGP/SGP4

EPOCH          = 2025-10-26T22:27:54.091008
MEAN_MOTION    = 14.17202107
ECCENTRICITY   = .00152857
INCLINATION    = 70.9892
RA_OF_ASC_NODE = 293.1819
ARG_OF_PERICENTER = 48.5617
MEAN_ANOMALY   = 311.6817

EPHEMERIS_TYPE = 0
CLASSIFICATION_TYPE = U
NORAD_CAT_ID   = 22803
ELEMENT_SET_NO = 999
REV_AT_EPOCH   = 66058
BSTAR          = .10624605E-3
MEAN_MOTION_DOT = .167E-5
MEAN_MOTION_DDOT = 0

CCSDS_OMM_VERS = 2.0
CREATION_DATE  = 
ORIGINATOR     = 

OBJECT_NAME    = ARIANE 40 R/B
OBJECT_ID      = 1993-061H
CENTER_NAME    = EARTH
REF_FRAME      = TEME
TIME_SYSTEM    = UTC
MEAN_ELEMENT_THEORY = SGP/SGP4

EPOCH          = 2025-10-26T04:48:54.450144
MEAN_MOTION    = 14.32747706
ECCENTRICITY   = .0009979
INCLINATION    = 98.5130
RA_OF_ASC_NODE = 5.5827
ARG_OF_PERICENTER = 327.4134
MEAN_ANOMALY   = 32.6433

EPHEMERIS_TYPE = 0
CLASSIFICATION_TYPE = U
NORAD_CAT_ID   = 22830
ELEMENT_SET_NO = 999
REV_AT_EPOCH   = 67484
BSTAR          = .15032E-3
MEAN_MOTION_DOT = .366E-5
MEAN_MOTION_DDOT = 0

CCSDS_OMM_VERS = 2.0
CREATION_DATE  = 
ORIGINATOR     = 

OBJECT_NAME    = COSMOS 2278
OBJECT_ID      = 1994-023A
CENTER_NAME    = EARTH
REF_FRAME      = TEME
TIME_SYSTEM    = UTC
MEAN_ELEMENT_THEORY = SGP/SGP4

EPOCH          = 2025-10-26T22:16:02.090208
MEAN_MOTION    = 14.14331394
ECCENTRICITY   = .0010823
INCLINATION    = 71.0510
RA_OF_ASC_NODE = 94.9445
ARG_OF_PERICENTER = 240.9232
MEAN_ANOMALY   = 119.0808

EPHEMERIS_TYPE = 0
CLASSIFICATION_TYPE = U
NORAD_CAT_ID   = 23087
ELEMENT_SET_NO = 999
REV_AT_EPOCH   = 62589
BSTAR          = -.53215822E-4
MEAN_MOTION_DOT = -.149E-5
MEAN_MOTION_DDOT = 0

CCSDS_OMM_VERS = 2.0
CREATION_DATE  = 
ORIGINATOR     = 

OBJECT_NAME    = SL-16 R/B
OBJECT_ID      = 1994-023B
CENTER_NAME    = EARTH
REF_FRAME      = TEME
TIME_SYSTEM    = UTC
MEAN_ELEMENT_THEORY = SGP/SGP4

EPOCH          = 2025-10-26T21:27:40.163040
MEAN_MOTION    = 14.14989158
ECCENTRICITY   = .00025062
INCLINATION    = 71.0019
RA_OF_ASC_NODE = 351.8660
ARG_OF_PERICENTER = 183.8903
MEAN_ANOMALY   = 176.2200

EPHEMERIS_TYPE = 0
CLASSIFICATION_TYPE = U
NORAD_CAT_ID   = 23088
ELEMENT_SET_NO = 999
REV_AT_EPOCH   = 62716
BSTAR          = .18283512E-3
MEAN_MOTION_DOT = .306E-5
MEAN_MOTION_DDOT = 0

CCSDS_OMM_VERS = 2.0
CREATION_DATE  = 
ORIGINATOR     = 

OBJECT_NAME    = SL-16 R/B
OBJECT_ID      = 1994-074B
CENTER_NAME    = EARTH
REF_FRAME      = TEME
TIME_SYSTEM    = UTC
MEAN_ELEMENT_THEORY = SGP/SGP4

EPOCH          = 2025-10-26T21:16:55.886016
MEAN_MOTION    = 14.79208963
ECCENTRICITY   = .0005352
INCLINATION    = 97.7265
RA_OF_ASC_NODE = 331.0387
ARG_OF_PERICENTER = 304.6954
MEAN_ANOMALY   = 228.2450

EPHEMERIS_TYPE = 0
CLASSIFICATION_TYPE = U
NORAD_CAT_ID   = 23343
ELEMENT_SET_NO = 999
REV_AT_EPOCH   = 66746
BSTAR          = .1021576E-3
MEAN_MOTION_DOT = .709E-5
MEAN_MOTION_DDOT = 0

CCSDS_OMM_VERS = 2.0
CREATION_DATE  = 
ORIGINATOR     = 

OBJECT_NAME    = SL-16 R/B
OBJECT_ID      = 1994-077B
CENTER_NAME    = EARTH
REF_FRAME      = TEME
TIME_SYSTEM    = UTC
MEAN_ELEMENT_THEORY = SGP/SGP4

EPOCH          = 2025-10-26T22:16:16.703904
MEAN_MOTION    = 14.15539364
ECCENTRICITY   = .00034078
INCLINATION    = 70.9814
RA_OF_ASC_NODE = 273.8916
ARG_OF_PERICENTER = 320.8019
MEAN_ANOMALY   = 39.2857

EPHEMERIS_TYPE = 0
CLASSIFICATION_TYPE = U
NORAD_CAT_ID   = 23405
ELEMENT_SET_NO = 999
REV_AT_EPOCH   = 59730
BSTAR          = -.75691072E-4
MEAN_MOTION_DOT = -.196E-5
MEAN_MOTION_DDOT = 0

CCSDS_OMM_VERS = 2.0
CREATION_DATE  = 
ORIGINATOR     = 

OBJECT_NAME    = ARIANE 40+ R/B
OBJECT_ID      = 1995-021B
CENTER_NAME    = EARTH
REF_FRAME      = TEME
TIME_SYSTEM    = UTC
MEAN_ELEMENT_THEORY = SGP/SGP4

EPOCH          = 2025-10-26T23:37:18.228864
MEAN_MOTION    = 14.39640483
ECCENTRICITY   = .00069312
INCLINATION    = 98.4702
RA_OF_ASC_NODE = 8.1262
ARG_OF_PERICENTER = 173.4192
MEAN_ANOMALY   = 359.4555

EPHEMERIS_TYPE = 0
CLASSIFICATION_TYPE = U
NORAD_CAT_ID   = 23561
ELEMENT_SET_NO = 999
REV_AT_EPOCH   = 60000
BSTAR          = .16061848E-3
MEAN_MOTION_DOT = .459E-5
MEAN_MOTION_DDOT = 0

CCSDS_OMM_VERS = 2.0
CREATION_DATE  = 
ORIGINATOR     = 

OBJECT_NAME    = SL-16 R/B
OBJECT_ID      = 1995-058B
CENTER_NAME    = EARTH
REF_FRAME      = TEME
TIME_SYSTEM    = UTC
MEAN_ELEMENT_THEORY = SGP/SGP4

EPOCH          = 2025-10-26T20:35:02.465952
MEAN_MOTION    = 14.15467917
ECCENTRICITY   = .00139401
INCLINATION    = 71.0185
RA_OF_ASC_NODE = 101.2292
ARG_OF_PERICENTER = 316.3078
MEAN_ANOMALY   = 43.6941

EPHEMERIS_TYPE = 0
CLASSIFICATION_TYPE = U
NORAD_CAT_ID   = 23705
ELEMENT_SET_NO = 999
REV_AT_EPOCH   = 54891
BSTAR          = .10895102E-3
MEAN_MOTION_DOT = .165E-5
MEAN_MOTION_DDOT = 0

